[{"OBJECT_NAME":"ONEWEB-0528","OBJECT_ID":"2022-166B","EPOCH":"2025-09-27T14:05:05.880768","MEAN_MOTION":13.21823465,"ECCENTRICITY":0.00018076,"INCLINATION":87.9186,"RA_OF_ASC_NODE":296.4073,"ARG_OF_PERICENTER":95.5499,"MEAN_ANOMALY":264.5841,"EPHEMERIS_TYPE":0,"CLASSIFICATION_TYPE":"U","NORAD_CAT_ID":54643,"ELEMENT_SET_NO":999,"REV_AT_EPOCH":13685,"BSTAR":-7.4989374e-5,"MEAN_MOTION_DOT":-1.8e-7,"MEAN_MOTION_DDOT":0},{"OBJECT_NAME":"ONEWEB-0539","OBJECT_ID":"2022-166C","EPOCH":"2025-09-27T13:08:21.058944","MEAN_MOTION":13.21825575,"ECCENTRICITY":0.00017899,"INCLINATION":87.9178,"RA_OF_ASC_NODE":296.382,"ARG_OF_PERICENTER":87.282,"MEAN_ANOMALY":272.8519,"EPHEMERIS_TYPE":0,"CLASSIFICATION_TYPE":"U","NORAD_CAT_ID":54644,"ELEMENT_SET_NO":999,"REV_AT_EPOCH":13684,"BSTAR":-7.586413e-5,"MEAN_MOTION_DOT":-1.8e-7,"MEAN_MOTION_DDOT":0},{"OBJECT_NAME":"ONEWEB-0540","OBJECT_ID":"2022-166D","EPOCH":"2025-09-27T13:17:37.561344","MEAN_MOTION":13.21824214,"ECCENTRICITY":0.00018148,"INCLINATION":87.9183,"RA_OF_ASC_NODE":296.4186,"ARG_OF_PERICENTER":86.7711,"MEAN_ANOMALY":273.363,"EPHEMERIS_TYPE":0,"CLASSIFICATION_TYPE":"U","NORAD_CAT_ID":54645,"ELEMENT_SET_NO":999,"REV_AT_EPOCH":13683,"BSTAR":3.0677775e-5,"MEAN_MOTION_DOT":2.6e-7,"MEAN_MOTION_DDOT":0},{"OBJECT_NAME":"ONEWEB-0542","OBJECT_ID":"2022-166E","EPOCH":"2025-09-27T13:21:57.494016","MEAN_MOTION":13.2182484,"ECCENTRICITY":0.00018848,"INCLINATION":87.9179,"RA_OF_ASC_NODE":296.3775,"ARG_OF_PERICENTER":81.4417,"MEAN_ANOMALY":278.693,"EPHEMERIS_TYPE":0,"CLASSIFICATION_TYPE":"U","NORAD_CAT_ID":54646,"ELEMENT_SET_NO":999,"REV_AT_EPOCH":13684,"BSTAR":6.8176427e-5,"MEAN_MOTION_DOT":4.1e-7,"MEAN_MOTION_DDOT":0},{"OBJECT_NAME":"ONEWEB-0545","OBJECT_ID":"2022-166F","EPOCH":"2025-09-27T01:40:14.525184","MEAN_MOTION":13.21824109,"ECCENTRICITY":0.00016854,"INCLINATION":87.9181,"RA_OF_ASC_NODE":296.4944,"ARG_OF_PERICENTER":76.9001,"MEAN_ANOMALY":283.2321,"EPHEMERIS_TYPE":0,"CLASSIFICATION_TYPE":"U","NORAD_CAT_ID":54647,"ELEMENT_SET_NO":999,"REV_AT_EPOCH":13674,"BSTAR":3.2714461e-5,"MEAN_MOTION_DOT":2.7e-7,"MEAN_MOTION_DDOT":0},{"OBJECT_NAME":"ONEWEB-0580","OBJECT_ID":"2022-166G","EPOCH":"2025-09-27T11:55:40.171872","MEAN_MOTION":13.21825775,"ECCENTRICITY":0.00019662,"INCLINATION":87.9183,"RA_OF_ASC_NODE":296.4073,"ARG_OF_PERICENTER":81.8662,"MEAN_ANOMALY":278.2695,"EPHEMERIS_TYPE":0,"CLASSIFICATION_TYPE":"U","NORAD_CAT_ID":54648,"ELEMENT_SET_NO":999,"REV_AT_EPOCH":13684,"BSTAR":0.00017722662,"MEAN_MOTION_DOT":8.6e-7,"MEAN_MOTION_DDOT":0},{"OBJECT_NAME":"ONEWEB-0582","OBJECT_ID":"2022-166H","EPOCH":"2025-09-27T12:56:58.994880","MEAN_MOTION":13.21824387,"ECCENTRICITY":0.00019605,"INCLINATION":87.9178,"RA_OF_ASC_NODE":296.3919,"ARG_OF_PERICENTER":78.2048,"MEAN_ANOMALY":281.9306,"EPHEMERIS_TYPE":0,"CLASSIFICATION_TYPE":"U","NORAD_CAT_ID":54649,"ELEMENT_SET_NO":999,"REV_AT_EPOCH":13682,"BSTAR":-3.1985624e-5,"MEAN_MOTION_DOT":0,"MEAN_MOTION_DDOT":0},{"OBJECT_NAME":"ONEWEB-0583","OBJECT_ID":"2022-166J","EPOCH":"2025-09-27T13:12:53.103168","MEAN_MOTION":13.21824048,"ECCENTRICITY":0.00018052,"INCLINATION":87.9181,"RA_OF_ASC_NODE":296.4152,"ARG_OF_PERICENTER":88.8665,"MEAN_ANOMALY":271.2676,"EPHEMERIS_TYPE":0,"CLASSIFICATION_TYPE":"U","NORAD_CAT_ID":54650,"ELEMENT_SET_NO":999,"REV_AT_EPOCH":13683,"BSTAR":-3.154069e-5,"MEAN_MOTION_DOT":0,"MEAN_MOTION_DDOT":0},{"OBJECT_NAME":"ONEWEB-0584","OBJECT_ID":"2022-166K","EPOCH":"2025-09-27T13:42:23.846976","MEAN_MOTION":13.21824494,"ECCENTRICITY":0.00020637,"INCLINATION":87.9183,"RA_OF_ASC_NODE":296.396,"ARG_OF_PERICENTER":82.378,"MEAN_ANOMALY":277.7588,"EPHEMERIS_TYPE":0,"CLASSIFICATION_TYPE":"U","NORAD_CAT_ID":54651,"ELEMENT_SET_NO":999,"REV_AT_EPOCH":13682,"BSTAR":-5.0744037e-5,"MEAN_MOTION_DOT":-8.0e-8,"MEAN_MOTION_DDOT":0},{"OBJECT_NAME":"ONEWEB-0585","OBJECT_ID":"2022-166L","EPOCH":"2025-09-27T14:18:43.908192","MEAN_MOTION":13.21824171,"ECCENTRICITY":0.00019031,"INCLINATION":87.9182,"RA_OF_ASC_NODE":296.3766,"ARG_OF_PERICENTER":96.6733,"MEAN_ANOMALY":263.4617,"EPHEMERIS_TYPE":0,"CLASSIFICATION_TYPE":"U","NORAD_CAT_ID":54652,"ELEMENT_SET_NO":999,"REV_AT_EPOCH":13683,"BSTAR":-4.2007364e-5,"MEAN_MOTION_DOT":-4.0e-8,"MEAN_MOTION_DDOT":0},{"OBJECT_NAME":"ONEWEB-0586","OBJECT_ID":"2022-166M","EPOCH":"2025-09-27T12:47:54.181536","MEAN_MOTION":13.21824558,"ECCENTRICITY":0.00018385,"INCLINATION":87.9182,"RA_OF_ASC_NODE":296.4145,"ARG_OF_PERICENTER":87.7897,"MEAN_ANOMALY":272.3447,"EPHEMERIS_TYPE":0,"CLASSIFICATION_TYPE":"U","NORAD_CAT_ID":54653,"ELEMENT_SET_NO":999,"REV_AT_EPOCH":13682,"BSTAR":-0.00010377865,"MEAN_MOTION_DOT":-3.0e-7,"MEAN_MOTION_DDOT":0},{"OBJECT_NAME":"ONEWEB-0587","OBJECT_ID":"2022-166N","EPOCH":"2025-09-27T13:01:31.636992","MEAN_MOTION":13.2182648,"ECCENTRICITY":0.00019683,"INCLINATION":87.9188,"RA_OF_ASC_NODE":296.3607,"ARG_OF_PERICENTER":104.3663,"MEAN_ANOMALY":255.769,"EPHEMERIS_TYPE":0,"CLASSIFICATION_TYPE":"U","NORAD_CAT_ID":54654,"ELEMENT_SET_NO":999,"REV_AT_EPOCH":13698,"BSTAR":-5.4669145e-5,"MEAN_MOTION_DOT":-1.0e-7,"MEAN_MOTION_DDOT":0},{"OBJECT_NAME":"ONEWEB-0589","OBJECT_ID":"2022-166P","EPOCH":"2025-09-27T10:54:21.614112","MEAN_MOTION":13.21824859,"ECCENTRICITY":0.00022765,"INCLINATION":87.9182,"RA_OF_ASC_NODE":296.4215,"ARG_OF_PERICENTER":71.8152,"MEAN_ANOMALY":288.3229,"EPHEMERIS_TYPE":0,"CLASSIFICATION_TYPE":"U","NORAD_CAT_ID":54655,"ELEMENT_SET_NO":999,"REV_AT_EPOCH":13683,"BSTAR":2.154746e-5,"MEAN_MOTION_DOT":2.2e-7,"MEAN_MOTION_DDOT":0},{"OBJECT_NAME":"ONEWEB-0590","OBJECT_ID":"2022-166Q","EPOCH":"2025-09-27T13:17:12.851808","MEAN_MOTION":13.21827057,"ECCENTRICITY":0.00023476,"INCLINATION":87.918,"RA_OF_ASC_NODE":296.3774,"ARG_OF_PERICENTER":94.5189,"MEAN_ANOMALY":265.6213,"EPHEMERIS_TYPE":0,"CLASSIFICATION_TYPE":"U","NORAD_CAT_ID":54656,"ELEMENT_SET_NO":999,"REV_AT_EPOCH":13683,"BSTAR":1.7976998e-5,"MEAN_MOTION_DOT":2.0e-7,"MEAN_MOTION_DDOT":0},{"OBJECT_NAME":"ONEWEB-0591","OBJECT_ID":"2022-166R","EPOCH":"2025-09-27T13:35:35.659680","MEAN_MOTION":13.21823753,"ECCENTRICITY":0.00019537,"INCLINATION":87.9181,"RA_OF_ASC_NODE":296.3992,"ARG_OF_PERICENTER":89.6387,"MEAN_ANOMALY":270.497,"EPHEMERIS_TYPE":0,"CLASSIFICATION_TYPE":"U","NORAD_CAT_ID":54657,"ELEMENT_SET_NO":999,"REV_AT_EPOCH":13686,"BSTAR":5.2315318e-5,"MEAN_MOTION_DOT":3.5e-7,"MEAN_MOTION_DDOT":0},{"OBJECT_NAME":"ONEWEB-0592","OBJECT_ID":"2022-166S","EPOCH":"2025-09-27T13:40:08.179104","MEAN_MOTION":13.21824284,"ECCENTRICITY":0.00019674,"INCLINATION":87.9189,"RA_OF_ASC_NODE":296.3542,"ARG_OF_PERICENTER":90.0324,"MEAN_ANOMALY":270.1035,"EPHEMERIS_TYPE":0,"CLASSIFICATION_TYPE":"U","NORAD_CAT_ID":54658,"ELEMENT_SET_NO":999,"REV_AT_EPOCH":13674,"BSTAR":0.00010522215,"MEAN_MOTION_DOT":5.6e-7,"MEAN_MOTION_DDOT":0},{"OBJECT_NAME":"ONEWEB-0593","OBJECT_ID":"2022-166T","EPOCH":"2025-09-27T14:14:11.744736","MEAN_MOTION":13.21827955,"ECCENTRICITY":0.00017687,"INCLINATION":87.9181,"RA_OF_ASC_NODE":296.3838,"ARG_OF_PERICENTER":88.7851,"MEAN_ANOMALY":271.3486,"EPHEMERIS_TYPE":0,"CLASSIFICATION_TYPE":"U","NORAD_CAT_ID":54659,"ELEMENT_SET_NO":999,"REV_AT_EPOCH":13685,"BSTAR":-8.4214647e-5,"MEAN_MOTION_DOT":-2.2e-7,"MEAN_MOTION_DDOT":0}]
