ONEWEB-0528             
1 54643U 22166B   25270.58687362 -.00000018  00000+0 -74989-4 0  9991
2 54643  87.9186 296.4073 0001807  95.5499 264.5841 13.21823465136859
ONEWEB-0539             
1 54644U 22166C   25270.54746596 -.00000018  00000+0 -75864-4 0  9996
2 54644  87.9178 296.3820 0001789  87.2820 272.8519 13.21825575136842
ONEWEB-0540             
1 54645U 22166D   25270.55390696  .00000026  00000+0  30678-4 0  9995
2 54645  87.9183 296.4186 0001814  86.7711 273.3630 13.21824214136835
ONEWEB-0542             
1 54646U 22166E   25270.55691544  .00000041  00000+0  68176-4 0  9993
2 54646  87.9179 296.3775 0001884  81.4417 278.6930 13.21824840136843
ONEWEB-0545             
1 54647U 22166F   25270.06961256  .00000027  00000+0  32714-4 0  9993
2 54647  87.9181 296.4944 0001685  76.9001 283.2321 13.21824109136746
ONEWEB-0580             
1 54648U 22166G   25270.49699273  .00000086  00000+0  17723-3 0  9995
2 54648  87.9183 296.4073 0001966  81.8662 278.2695 13.21825775136841
ONEWEB-0582             
1 54649U 22166H   25270.53957170  .00000000  00000+0 -31986-4 0  9999
2 54649  87.9178 296.3919 0001960  78.2048 281.9306 13.21824387136822
ONEWEB-0583             
1 54650U 22166J   25270.55061462  .00000000  00000+0 -31541-4 0  9990
2 54650  87.9181 296.4152 0001805  88.8665 271.2676 13.21824048136835
ONEWEB-0584             
1 54651U 22166K   25270.57110934 -.00000008  00000+0 -50744-4 0  9997
2 54651  87.9183 296.3960 0002063  82.3780 277.7588 13.21824494136825
ONEWEB-0585             
1 54652U 22166L   25270.59634153 -.00000004  00000+0 -42007-4 0  9993
2 54652  87.9182 296.3766 0001903  96.6733 263.4617 13.21824171136835
ONEWEB-0586             
1 54653U 22166M   25270.53326599 -.00000030  00000+0 -10378-3 0  9994
2 54653  87.9182 296.4145 0001838  87.7897 272.3447 13.21824558136825
ONEWEB-0587             
1 54654U 22166N   25270.54272728 -.00000010  00000+0 -54669-4 0  9990
2 54654  87.9188 296.3607 0001968 104.3663 255.7690 13.21826480136983
ONEWEB-0589             
1 54655U 22166P   25270.45441683  .00000022  00000+0  21547-4 0  9999
2 54655  87.9182 296.4215 0002276  71.8152 288.3229 13.21824859136830
ONEWEB-0590             
1 54656U 22166Q   25270.55362097  .00000020  00000+0  17977-4 0  9992
2 54656  87.9180 296.3774 0002347  94.5189 265.6213 13.21827057136833
ONEWEB-0591             
1 54657U 22166R   25270.56638495  .00000035  00000+0  52315-4 0  9993
2 54657  87.9181 296.3992 0001953  89.6387 270.4970 13.21823753136860
ONEWEB-0592             
1 54658U 22166S   25270.56953911  .00000056  00000+0  10522-3 0  9993
2 54658  87.9189 296.3542 0001967  90.0324 270.1035 13.21824284136748
ONEWEB-0593             
1 54659U 22166T   25270.59319149 -.00000022  00000+0 -84215-4 0  9992
2 54659  87.9181 296.3838 0001768  88.7851 271.3486 13.21827955136850
